{
  "norad_id": 38857,
  "name": "GSAT0103 (GALILEO-FM3)",
  "history": [
    {
      "epoch": "2026-03-27T08:29:07.581408Z",
      "apogee_km": 23239.50249909679,
      "perigee_km": 23205.018036279936,
      "latitude_deg": -1.945099082376711e-05,
      "longitude_deg": 151.72000517875466,
      "height_km": 23216.566119057694,
      "semi_major_axis_km": 29600.397267688364,
      "eccentricity": 0.0005825,
      "inclination_deg": 55.7542,
      "raan_deg": 103.7894,
      "arg_perigee_deg": 290.2864,
      "mean_anomaly_deg": 69.7017,
      "mean_motion_rev_day": 1.70473333
    }
  ]
}