{"fetched_at":"2026-03-29T02:12:04Z","count":15717,"tles":[{"name":"GSAT0103 (GALILEO-FM3)","line1":"1 38857U 12055A   26086.35355997  .00000039  00000+0  00000+0 0  9992","line2":"2 38857  55.7542 103.7894 0005825 290.2864  69.7017  1.70473333 83613","category":"GPS"}]}